[{"OBJECT_NAME":"STARLINK-1597","OBJECT_ID":"2020-057AB","EPOCH":"2026-03-10T00:00:02.999808","MEAN_MOTION":15.56277129,"ECCENTRICITY":0.0007232,"INCLINATION":53.0492,"RA_OF_ASC_NODE":295.3481,"ARG_OF_PERICENTER":151.3253,"MEAN_ANOMALY":20.2244,"EPHEMERIS_TYPE":0,"CLASSIFICATION_TYPE":"U","NORAD_CAT_ID":46142,"ELEMENT_SET_NO":999,"REV_AT_EPOCH":592,"BSTAR":0.0020720238,"MEAN_MOTION_DOT":0.00150729,"MEAN_MOTION_DDOT":0},{"OBJECT_NAME":"AUREOLE 1","OBJECT_ID":"1971-119A","EPOCH":"2026-03-09T23:19:00.501312","MEAN_MOTION":13.98710975,"ECCENTRICITY":0.07087399,"INCLINATION":73.9466,"RA_OF_ASC_NODE":261.9601,"ARG_OF_PERICENTER":124.7307,"MEAN_ANOMALY":242.2688,"EPHEMERIS_TYPE":0,"CLASSIFICATION_TYPE":"U","NORAD_CAT_ID":5729,"ELEMENT_SET_NO":999,"REV_AT_EPOCH":62783,"BSTAR":0.00055955655,"MEAN_MOTION_DOT":8.283e-5,"MEAN_MOTION_DDOT":0}]
